UNKNOWN                 
1 81438U          25352.36230646  .00002865  00000+0  42152-2 0  9997
2 81438 100.3149 224.2915 0050224  53.0236 307.5481 13.54713051592702
UNKNOWN                 
1 81439U          25352.11304083  .00000276  00000+0  90569-3 0  9998
2 81439  67.1593 131.4046 0603047 199.8676 157.7916 12.62615639262572
UNKNOWN                 
1 81449U          25351.39879882  .00045877  00000+0  36058-2 0  9990
2 81449  66.7936 338.2358 0018008 118.5794 241.7156 15.00491181634255
UNKNOWN                 
1 81478U          25352.70694581  .00004048  00000+0  14625-2 0  9990
2 81478  98.9514 264.7573 0147187 341.5462  47.6752 14.28263653623791
UNKNOWN                 
1 81488U          25353.60414153  .00000114  00000+0  22614-3 0  9994
2 81488 100.0009 226.3655 0044694 343.3830  45.9076 13.56522995597561
UNKNOWN                 
1 81497U          25352.21507895  .00003255  00000+0  29534-2 0  9992
2 81497 100.3024 247.3946 0029907   1.1698 151.1792 13.84196609217056
UNKNOWN                 
1 81499U          25351.88956353  .00001867  00000+0  51909-3 0  9992
2 81499  74.0482 211.4489 0001739 282.7432  77.3533 14.47147051483169
UNKNOWN                 
1 81535U          25351.95756643  .00001207  00000+0  50785-3 0  9990
2 81535  98.2022  73.7530 0236163 133.5539 228.5517 14.13452957388136
UNKNOWN                 
1 81536U          25352.42324036  .00000517  00000+0  34235-2 0  9995
2 81536 101.9591 213.5550 0033862 284.3532 255.5858 12.55874928552529
UNKNOWN                 
1 81537U          25351.01657190  .00000123  00000+0  98516-4 0  9997
2 81537  71.0393 100.4008 0075794 147.5491 213.0322 14.07095875621069
UNKNOWN                 
1 81552U          25349.51435483  .00001096  00000+0  24303-2 0  9996
2 81552  99.0653 275.7867 0259238  11.5492 349.1424 13.18182296579614
UNKNOWN                 
1 81599U          25352.77827740  .00000356  00000+0  73912-3 0  9999
2 81599  67.2967 267.9074 0245083  79.8512 314.2725 13.31442601585883
