CCSDS_OMM_VERS = 2.0
CREATION_DATE  = 
ORIGINATOR     = 

OBJECT_NAME    = UNKNOWN
OBJECT_ID      = 
CENTER_NAME    = EARTH
REF_FRAME      = TEME
TIME_SYSTEM    = UTC
MEAN_ELEMENT_THEORY = SGP/SGP4

EPOCH          = 2025-12-18T08:41:43.278144
MEAN_MOTION    = 13.54713051
ECCENTRICITY   = .0050224
INCLINATION    = 100.3149
RA_OF_ASC_NODE = 224.2915
ARG_OF_PERICENTER = 53.0236
MEAN_ANOMALY   = 307.5481

EPHEMERIS_TYPE = 0
CLASSIFICATION_TYPE = U
NORAD_CAT_ID   = 81438
ELEMENT_SET_NO = 999
REV_AT_EPOCH   = 59270
BSTAR          = .42152E-2
MEAN_MOTION_DOT = .2865E-4
MEAN_MOTION_DDOT = 0

CCSDS_OMM_VERS = 2.0
CREATION_DATE  = 
ORIGINATOR     = 

OBJECT_NAME    = UNKNOWN
OBJECT_ID      = 
CENTER_NAME    = EARTH
REF_FRAME      = TEME
TIME_SYSTEM    = UTC
MEAN_ELEMENT_THEORY = SGP/SGP4

EPOCH          = 2025-12-18T02:42:46.727712
MEAN_MOTION    = 12.62615639
ECCENTRICITY   = .0603047
INCLINATION    = 67.1593
RA_OF_ASC_NODE = 131.4046
ARG_OF_PERICENTER = 199.8676
MEAN_ANOMALY   = 157.7916

EPHEMERIS_TYPE = 0
CLASSIFICATION_TYPE = U
NORAD_CAT_ID   = 81439
ELEMENT_SET_NO = 999
REV_AT_EPOCH   = 26257
BSTAR          = .90569E-3
MEAN_MOTION_DOT = .276E-5
MEAN_MOTION_DDOT = 0

CCSDS_OMM_VERS = 2.0
CREATION_DATE  = 
ORIGINATOR     = 

OBJECT_NAME    = UNKNOWN
OBJECT_ID      = 
CENTER_NAME    = EARTH
REF_FRAME      = TEME
TIME_SYSTEM    = UTC
MEAN_ELEMENT_THEORY = SGP/SGP4

EPOCH          = 2025-12-17T09:34:16.218048
MEAN_MOTION    = 15.00491181
ECCENTRICITY   = .0018008
INCLINATION    = 66.7936
RA_OF_ASC_NODE = 338.2358
ARG_OF_PERICENTER = 118.5794
MEAN_ANOMALY   = 241.7156

EPHEMERIS_TYPE = 0
CLASSIFICATION_TYPE = U
NORAD_CAT_ID   = 81449
ELEMENT_SET_NO = 999
REV_AT_EPOCH   = 63425
BSTAR          = .36058E-2
MEAN_MOTION_DOT = .45877E-3
MEAN_MOTION_DDOT = 0

CCSDS_OMM_VERS = 2.0
CREATION_DATE  = 
ORIGINATOR     = 

OBJECT_NAME    = UNKNOWN
OBJECT_ID      = 
CENTER_NAME    = EARTH
REF_FRAME      = TEME
TIME_SYSTEM    = UTC
MEAN_ELEMENT_THEORY = SGP/SGP4

EPOCH          = 2025-12-18T16:58:00.117984
MEAN_MOTION    = 14.28263653
ECCENTRICITY   = .0147187
INCLINATION    = 98.9514
RA_OF_ASC_NODE = 264.7573
ARG_OF_PERICENTER = 341.5462
MEAN_ANOMALY   = 47.6752

EPHEMERIS_TYPE = 0
CLASSIFICATION_TYPE = U
NORAD_CAT_ID   = 81478
ELEMENT_SET_NO = 999
REV_AT_EPOCH   = 62379
BSTAR          = .14625E-2
MEAN_MOTION_DOT = .4048E-4
MEAN_MOTION_DDOT = 0

CCSDS_OMM_VERS = 2.0
CREATION_DATE  = 
ORIGINATOR     = 

OBJECT_NAME    = UNKNOWN
OBJECT_ID      = 
CENTER_NAME    = EARTH
REF_FRAME      = TEME
TIME_SYSTEM    = UTC
MEAN_ELEMENT_THEORY = SGP/SGP4

EPOCH          = 2025-12-19T14:29:57.828192
MEAN_MOTION    = 13.56522995
ECCENTRICITY   = .0044694
INCLINATION    = 100.0009
RA_OF_ASC_NODE = 226.3655
ARG_OF_PERICENTER = 343.3830
MEAN_ANOMALY   = 45.9076

EPHEMERIS_TYPE = 0
CLASSIFICATION_TYPE = U
NORAD_CAT_ID   = 81488
ELEMENT_SET_NO = 999
REV_AT_EPOCH   = 59756
BSTAR          = .22614E-3
MEAN_MOTION_DOT = .114E-5
MEAN_MOTION_DDOT = 0

CCSDS_OMM_VERS = 2.0
CREATION_DATE  = 
ORIGINATOR     = 

OBJECT_NAME    = UNKNOWN
OBJECT_ID      = 
CENTER_NAME    = EARTH
REF_FRAME      = TEME
TIME_SYSTEM    = UTC
MEAN_ELEMENT_THEORY = SGP/SGP4

EPOCH          = 2025-12-18T05:09:42.821280
MEAN_MOTION    = 13.84196609
ECCENTRICITY   = .0029907
INCLINATION    = 100.3024
RA_OF_ASC_NODE = 247.3946
ARG_OF_PERICENTER = 1.1698
MEAN_ANOMALY   = 151.1792

EPHEMERIS_TYPE = 0
CLASSIFICATION_TYPE = U
NORAD_CAT_ID   = 81497
ELEMENT_SET_NO = 999
REV_AT_EPOCH   = 21705
BSTAR          = .29534E-2
MEAN_MOTION_DOT = .3255E-4
MEAN_MOTION_DDOT = 0

CCSDS_OMM_VERS = 2.0
CREATION_DATE  = 
ORIGINATOR     = 

OBJECT_NAME    = UNKNOWN
OBJECT_ID      = 
CENTER_NAME    = EARTH
REF_FRAME      = TEME
TIME_SYSTEM    = UTC
MEAN_ELEMENT_THEORY = SGP/SGP4

EPOCH          = 2025-12-17T21:20:58.288992
MEAN_MOTION    = 14.47147051
ECCENTRICITY   = .0001739
INCLINATION    = 74.0482
RA_OF_ASC_NODE = 211.4489
ARG_OF_PERICENTER = 282.7432
MEAN_ANOMALY   = 77.3533

EPHEMERIS_TYPE = 0
CLASSIFICATION_TYPE = U
NORAD_CAT_ID   = 81499
ELEMENT_SET_NO = 999
REV_AT_EPOCH   = 48316
BSTAR          = .51909E-3
MEAN_MOTION_DOT = .1867E-4
MEAN_MOTION_DDOT = 0

CCSDS_OMM_VERS = 2.0
CREATION_DATE  = 
ORIGINATOR     = 

OBJECT_NAME    = UNKNOWN
OBJECT_ID      = 
CENTER_NAME    = EARTH
REF_FRAME      = TEME
TIME_SYSTEM    = UTC
MEAN_ELEMENT_THEORY = SGP/SGP4

EPOCH          = 2025-12-17T22:58:53.739552
MEAN_MOTION    = 14.13452957
ECCENTRICITY   = .0236163
INCLINATION    = 98.2022
RA_OF_ASC_NODE = 73.7530
ARG_OF_PERICENTER = 133.5539
MEAN_ANOMALY   = 228.5517

EPHEMERIS_TYPE = 0
CLASSIFICATION_TYPE = U
NORAD_CAT_ID   = 81535
ELEMENT_SET_NO = 999
REV_AT_EPOCH   = 38813
BSTAR          = .50785E-3
MEAN_MOTION_DOT = .1207E-4
MEAN_MOTION_DDOT = 0

CCSDS_OMM_VERS = 2.0
CREATION_DATE  = 
ORIGINATOR     = 

OBJECT_NAME    = UNKNOWN
OBJECT_ID      = 
CENTER_NAME    = EARTH
REF_FRAME      = TEME
TIME_SYSTEM    = UTC
MEAN_ELEMENT_THEORY = SGP/SGP4

EPOCH          = 2025-12-18T10:09:27.967104
MEAN_MOTION    = 12.55874928
ECCENTRICITY   = .0033862
INCLINATION    = 101.9591
RA_OF_ASC_NODE = 213.5550
ARG_OF_PERICENTER = 284.3532
MEAN_ANOMALY   = 255.5858

EPHEMERIS_TYPE = 0
CLASSIFICATION_TYPE = U
NORAD_CAT_ID   = 81536
ELEMENT_SET_NO = 999
REV_AT_EPOCH   = 55252
BSTAR          = .34235E-2
MEAN_MOTION_DOT = .517E-5
MEAN_MOTION_DDOT = 0

CCSDS_OMM_VERS = 2.0
CREATION_DATE  = 
ORIGINATOR     = 

OBJECT_NAME    = UNKNOWN
OBJECT_ID      = 
CENTER_NAME    = EARTH
REF_FRAME      = TEME
TIME_SYSTEM    = UTC
MEAN_ELEMENT_THEORY = SGP/SGP4

EPOCH          = 2025-12-17T00:23:51.812160
MEAN_MOTION    = 14.07095875
ECCENTRICITY   = .0075794
INCLINATION    = 71.0393
RA_OF_ASC_NODE = 100.4008
ARG_OF_PERICENTER = 147.5491
MEAN_ANOMALY   = 213.0322

EPHEMERIS_TYPE = 0
CLASSIFICATION_TYPE = U
NORAD_CAT_ID   = 81537
ELEMENT_SET_NO = 999
REV_AT_EPOCH   = 62106
BSTAR          = .98516E-4
MEAN_MOTION_DOT = .123E-5
MEAN_MOTION_DDOT = 0

CCSDS_OMM_VERS = 2.0
CREATION_DATE  = 
ORIGINATOR     = 

OBJECT_NAME    = UNKNOWN
OBJECT_ID      = 
CENTER_NAME    = EARTH
REF_FRAME      = TEME
TIME_SYSTEM    = UTC
MEAN_ELEMENT_THEORY = SGP/SGP4

EPOCH          = 2025-12-15T12:20:40.257312
MEAN_MOTION    = 13.18182296
ECCENTRICITY   = .0259238
INCLINATION    = 99.0653
RA_OF_ASC_NODE = 275.7867
ARG_OF_PERICENTER = 11.5492
MEAN_ANOMALY   = 349.1424

EPHEMERIS_TYPE = 0
CLASSIFICATION_TYPE = U
NORAD_CAT_ID   = 81552
ELEMENT_SET_NO = 999
REV_AT_EPOCH   = 57961
BSTAR          = .24303E-2
MEAN_MOTION_DOT = .1096E-4
MEAN_MOTION_DDOT = 0

CCSDS_OMM_VERS = 2.0
CREATION_DATE  = 
ORIGINATOR     = 

OBJECT_NAME    = UNKNOWN
OBJECT_ID      = 
CENTER_NAME    = EARTH
REF_FRAME      = TEME
TIME_SYSTEM    = UTC
MEAN_ELEMENT_THEORY = SGP/SGP4

EPOCH          = 2025-12-18T18:40:43.167360
MEAN_MOTION    = 13.31442601
ECCENTRICITY   = .0245083
INCLINATION    = 67.2967
RA_OF_ASC_NODE = 267.9074
ARG_OF_PERICENTER = 79.8512
MEAN_ANOMALY   = 314.2725

EPHEMERIS_TYPE = 0
CLASSIFICATION_TYPE = U
NORAD_CAT_ID   = 81599
ELEMENT_SET_NO = 999
REV_AT_EPOCH   = 58588
BSTAR          = .73912E-3
MEAN_MOTION_DOT = .356E-5
MEAN_MOTION_DDOT = 0

